HORS-2
1 57196U 23091AG  26068.92470846  .00016821  00000-0  59338-3 0  9994
2 57196  97.5195 134.7443 0009817  79.3164 280.9181 15.29280080149342
CSTP-4.2
1 64883U 25155H   26068.92359504  .00013547  00000-0  50403-3 0  9991
2 64883  97.4482  37.3122 0008199 152.0629 208.1051 15.27590961 65592
